ONEWEB-0349             
1 49281U 21090C   25333.22983442  .00000123  00000+0  27023-3 0  9998
2 49281  87.9185 314.3197 0001922  83.9842 276.1511 13.20773632203439
ONEWEB-0353             
1 49282U 21090D   25333.24928473 -.00000201  00000+0 -57558-3 0  9999
2 49282  87.8982 329.5364 0002029  90.7777 269.3585 13.14503019201313
ONEWEB-0356             
1 49283U 21090E   25333.22824212  .00000180  00000+0  40971-3 0  9999
2 49283  87.9191 314.3115 0001884 115.1625 244.9703 13.20774461203439
ONEWEB-0358             
1 49284U 21090F   25333.18247109  .00000046  00000+0  80339-4 0  9993
2 49284  87.9190 314.3218 0001750  89.1482 270.9852 13.20774167204153
ONEWEB-0359             
1 49285U 21090G   25333.17933177  .00000045  00000+0  79771-4 0  9997
2 49285  87.9184 314.3229 0001467  80.5947 279.5352 13.20771755204133
ONEWEB-0360             
1 49286U 21090H   25333.24563342  .00000048  00000+0  85702-4 0  9993
2 49286  87.9182 314.3181 0001759  83.7876 276.3458 13.20771980203455
ONEWEB-0361             
1 49287U 21090J   25333.22668528  .00000164  00000+0  37200-3 0  9992
2 49287  87.9189 314.3174 0001784  91.5743 268.5594 13.20772599203904
ONEWEB-0362             
1 49288U 21090K   25333.32415447 -.00000052  00000+0 -16311-3 0  9992
2 49288  87.9195 344.7557 0001881  83.4082 276.7264 13.19723361200552
